{"type":"FeatureCollection","attribution":{"source":"SFU Companion","repository":"https://gitlab.com/HolyChicken99/sfu-companion","originalAuthor":"Akki Singh (@HolyChicken99)","underlyingData":"Simon Fraser University ArcGIS","buildingId":"SUB","floorId":"2000","mapVersion":"sfu-companion-2026-10-03"},"features":[{"type":"Feature","id":"sub-2000-212-15773","properties":{"id":"sub-2000-212-15773","name":"SUB 212","floorId":"2000","roomId":"212","roomType":"Corridor","priority":5},"geometry":{"type":"Polygon","coordinates":[[[-122.918363,49.27877],[-122.918335,49.278766],[-122.918326,49.27879],[-122.918355,49.278794],[-122.918363,49.27877]]]}},{"type":"Feature","id":"sub-2000-2125-15774","properties":{"id":"sub-2000-2125-15774","name":"SFSS Community Kitchen","floorId":"2000","roomId":"2125","roomType":"Kitchenette","priority":30},"geometry":{"type":"Polygon","coordinates":[[[-122.918348,49.27872],[-122.918292,49.278711],[-122.918276,49.278758],[-122.918332,49.278766],[-122.918348,49.27872]]]}},{"type":"Feature","id":"sub-2000-2222-15776","properties":{"id":"sub-2000-2222-15776","name":"SUB 2222","floorId":"2000","roomId":"2222","roomType":"Office","priority":50},"geometry":{"type":"Polygon","coordinates":[[[-122.918069,49.278722],[-122.918027,49.278716],[-122.918013,49.278754],[-122.918055,49.27876],[-122.918069,49.278722]]]}},{"type":"Feature","id":"sub-2000-2224-15777","properties":{"id":"sub-2000-2224-15777","name":"SUB 2224","floorId":"2000","roomId":"2224","roomType":"Office","priority":50},"geometry":{"type":"Polygon","coordinates":[[[-122.918024,49.278716],[-122.917988,49.27871],[-122.917975,49.278748],[-122.918011,49.278753],[-122.918024,49.278716]]]}},{"type":"Feature","id":"sub-2000-2141-15778","properties":{"id":"sub-2000-2141-15778","name":"SUB 2141","floorId":"2000","roomId":"2141","roomType":"Washroom, single-stall, accessible","priority":85},"geometry":{"type":"Polygon","coordinates":[[[-122.91836,49.278683],[-122.918321,49.278677],[-122.918314,49.278696],[-122.918353,49.278702],[-122.91836,49.278683]]]}},{"type":"Feature","id":"sub-2000-2140-15779","properties":{"id":"sub-2000-2140-15779","name":"SUB 2140","floorId":"2000","roomId":"2140","roomType":"Washroom, men's","priority":85},"geometry":{"type":"Polygon","coordinates":[[[-122.918309,49.278673],[-122.918362,49.278681],[-122.918374,49.278646],[-122.918322,49.278638],[-122.918309,49.278673]]]}},{"type":"Feature","id":"sub-2000-220-1-15780","properties":{"id":"sub-2000-220-1-15780","name":"SUB 220.1","floorId":"2000","roomId":"220.1","roomType":"Corridor","priority":5},"geometry":{"type":"Polygon","coordinates":[[[-122.91838,49.278628],[-122.918359,49.278624],[-122.918358,49.278629],[-122.918327,49.278624],[-122.918322,49.278636],[-122.918375,49.278644],[-122.91838,49.278628]]]}},{"type":"Feature","id":"sub-2000-2306-15784","properties":{"id":"sub-2000-2306-15784","name":"Convenience Store","floorId":"2000","roomId":"2306","roomType":"Retail Store","priority":30},"geometry":{"type":"Polygon","coordinates":[[[-122.918544,49.278624],[-122.918562,49.278574],[-122.918488,49.278563],[-122.918487,49.278565],[-122.918481,49.278564],[-122.918482,49.278562],[-122.91842,49.278553],[-122.918402,49.278606],[-122.918463,49.278615],[-122.918464,49.278613],[-122.918469,49.278614],[-122.91847,49.278613],[-122.918544,49.278624]]]}},{"type":"Feature","id":"sub-2000-2301-15788","properties":{"id":"sub-2000-2301-15788","name":"Health Plan Office","floorId":"2000","roomId":"2301","roomType":"Office","priority":50},"geometry":{"type":"Polygon","coordinates":[[[-122.918188,49.278573],[-122.918234,49.27858],[-122.918246,49.278548],[-122.918195,49.27854],[-122.918184,49.278571],[-122.918188,49.278571],[-122.918188,49.278573]]]}},{"type":"Feature","id":"sub-2000-2330-15789","properties":{"id":"sub-2000-2330-15789","name":"SUB 2330","floorId":"2000","roomId":"2330","roomType":"Public Lounge","priority":30},"geometry":{"type":"Polygon","coordinates":[[[-122.918287,49.278403],[-122.918584,49.278448],[-122.918587,49.27844],[-122.918592,49.27844],[-122.918594,49.278433],[-122.918597,49.278433],[-122.918603,49.278417],[-122.918601,49.278416],[-122.918615,49.278375],[-122.918618,49.278375],[-122.918632,49.278334],[-122.918572,49.278325],[-122.918571,49.278328],[-122.918565,49.278328],[-122.918567,49.278324],[-122.918471,49.27831],[-122.91847,49.278313],[-122.918465,49.278312],[-122.918466,49.278309],[-122.918391,49.278298],[-122.91839,49.278301],[-122.918286,49.278285],[-122.918278,49.278308],[-122.918283,49.278309],[-122.918282,49.278312],[-122.918277,49.278312],[-122.918259,49.278361],[-122.918264,49.278361],[-122.918263,49.278365],[-122.918299,49.27837],[-122.918287,49.278403]]]}},{"type":"Feature","id":"sub-2000-2310-15790","properties":{"id":"sub-2000-2310-15790","name":"Dining","floorId":"2000","roomId":"2310","roomType":"Dining","priority":30},"geometry":{"type":"Polygon","coordinates":[[[-122.918206,49.278522],[-122.918203,49.278522],[-122.918197,49.278539],[-122.918316,49.278557],[-122.918319,49.278548],[-122.918322,49.278548],[-122.918319,49.278557],[-122.918375,49.278566],[-122.918382,49.278545],[-122.918598,49.278578],[-122.918612,49.278539],[-122.918639,49.278464],[-122.918592,49.278457],[-122.918591,49.278458],[-122.918581,49.278456],[-122.918584,49.278448],[-122.918287,49.278403],[-122.918243,49.278528],[-122.918206,49.278522]]]}},{"type":"Feature","id":"sub-2000-2430-15791","properties":{"id":"sub-2000-2430-15791","name":"SUB 2430","floorId":"2000","roomId":"2430","roomType":"Public Study Area","priority":30},"geometry":{"type":"Polygon","coordinates":[[[-122.918185,49.278266],[-122.91815,49.278261],[-122.918149,49.278264],[-122.918143,49.278264],[-122.918145,49.27826],[-122.91807,49.278249],[-122.918068,49.278252],[-122.918069,49.278252],[-122.918042,49.278328],[-122.91804,49.278331],[-122.918114,49.278342],[-122.918113,49.278342],[-122.918114,49.278339],[-122.918125,49.27834],[-122.918124,49.278344],[-122.918156,49.278349],[-122.918185,49.278266]]]}},{"type":"Feature","id":"sub-2000-2440-15792","properties":{"id":"sub-2000-2440-15792","name":"SUB 2440","floorId":"2000","roomId":"2440","roomType":"Meeting Room","priority":30},"geometry":{"type":"Polygon","coordinates":[[[-122.918036,49.278329],[-122.918036,49.278327],[-122.918039,49.278327],[-122.918056,49.278278],[-122.918054,49.278278],[-122.918055,49.278274],[-122.918057,49.278275],[-122.918065,49.278252],[-122.917983,49.278239],[-122.917979,49.27825],[-122.917981,49.278251],[-122.917977,49.278262],[-122.91798,49.278263],[-122.917979,49.278266],[-122.917976,49.278266],[-122.917963,49.278304],[-122.91796,49.278303],[-122.917956,49.278315],[-122.917961,49.278315],[-122.917961,49.278318],[-122.918036,49.278329]]]}},{"type":"Feature","id":"sub-2000-2402-15795","properties":{"id":"sub-2000-2402-15795","name":"SUB 2402","floorId":"2000","roomId":"2402","roomType":"Office","priority":50},"geometry":{"type":"Polygon","coordinates":[[[-122.917952,49.278565],[-122.917876,49.278553],[-122.917862,49.278592],[-122.917938,49.278604],[-122.917952,49.278565]]]}},{"type":"Feature","id":"sub-2000-222-15797","properties":{"id":"sub-2000-222-15797","name":"SUB 222","floorId":"2000","roomId":"222","roomType":"Corridor","priority":5},"geometry":{"type":"Polygon","coordinates":[[[-122.918037,49.278552],[-122.91792,49.278534],[-122.917912,49.278556],[-122.918029,49.278574],[-122.918037,49.278552]]]}},{"type":"Feature","id":"sub-2000-2230-15798","properties":{"id":"sub-2000-2230-15798","name":"SFSS Out On Campus","floorId":"2000","roomId":"2230","roomType":"Office","priority":50},"geometry":{"type":"Polygon","coordinates":[[[-122.918101,49.27863],[-122.917983,49.278613],[-122.917974,49.278637],[-122.91797,49.278637],[-122.917961,49.278663],[-122.918083,49.278681],[-122.918084,49.278678],[-122.918085,49.278678],[-122.918099,49.27864],[-122.918095,49.27864],[-122.918096,49.278636],[-122.918099,49.278636],[-122.918101,49.27863]]]}},{"type":"Feature","id":"sub-2000-220-2-15800","properties":{"id":"sub-2000-220-2-15800","name":"SUB 220.2","floorId":"2000","roomId":"220.2","roomType":"Corridor","priority":5},"geometry":{"type":"Polygon","coordinates":[[[-122.91832,49.278618],[-122.9183,49.278615],[-122.918299,49.27862],[-122.918272,49.278616],[-122.918267,49.278628],[-122.918314,49.278635],[-122.91832,49.278618]]]}},{"type":"Feature","id":"sub-2000-2130-15801","properties":{"id":"sub-2000-2130-15801","name":"SUB 2130","floorId":"2000","roomId":"2130","roomType":"Washroom, women's","priority":85},"geometry":{"type":"Polygon","coordinates":[[[-122.918314,49.278637],[-122.918267,49.27863],[-122.918264,49.278639],[-122.918251,49.278637],[-122.918235,49.278684],[-122.918294,49.278693],[-122.918314,49.278637]]]}},{"type":"Feature","id":"sub-2000-221-15802","properties":{"id":"sub-2000-221-15802","name":"SUB 221","floorId":"2000","roomId":"221","roomType":"Loading Dock","priority":30},"geometry":{"type":"Polygon","coordinates":[[[-122.91852,49.278715],[-122.918528,49.278692],[-122.918521,49.278691],[-122.918525,49.278679],[-122.918568,49.278686],[-122.918574,49.278669],[-122.91857,49.278668],[-122.918573,49.278659],[-122.918537,49.278654],[-122.918537,49.278655],[-122.918459,49.278643],[-122.918446,49.278679],[-122.918405,49.278673],[-122.918395,49.2787],[-122.918482,49.278713],[-122.918483,49.278709],[-122.91852,49.278715]]]}},{"type":"Feature","id":"sub-2000-211-15803","properties":{"id":"sub-2000-211-15803","name":"SUB 211","floorId":"2000","roomId":"211","roomType":"Corridor","priority":5},"geometry":{"type":"Polygon","coordinates":[[[-122.918366,49.278769],[-122.918378,49.278734],[-122.91838,49.278734],[-122.918378,49.278742],[-122.918418,49.278748],[-122.918433,49.278708],[-122.918392,49.278702],[-122.918389,49.27871],[-122.918387,49.27871],[-122.918414,49.278633],[-122.918384,49.278628],[-122.918335,49.278764],[-122.918366,49.278769]]]}},{"type":"Feature","id":"sub-2000-210-15804","properties":{"id":"sub-2000-210-15804","name":"SUB 210","floorId":"2000","roomId":"210","roomType":"Corridor","priority":5},"geometry":{"type":"Polygon","coordinates":[[[-122.918147,49.278673],[-122.918142,49.278686],[-122.918352,49.278718],[-122.918357,49.278705],[-122.918147,49.278673]]]}},{"type":"Feature","id":"sub-2000-200-15805","properties":{"id":"sub-2000-200-15805","name":"SUB 200","floorId":"2000","roomId":"200","roomType":"Corridor","priority":5},"geometry":{"type":"Polygon","coordinates":[[[-122.918174,49.278596],[-122.918119,49.278588],[-122.918087,49.278678],[-122.918142,49.278686],[-122.918174,49.278596]]]}},{"type":"Feature","id":"sub-2000-220-15806","properties":{"id":"sub-2000-220-15806","name":"SUB 220","floorId":"2000","roomId":"220","roomType":"Corridor","priority":5},"geometry":{"type":"Polygon","coordinates":[[[-122.918463,49.278617],[-122.91834,49.278598],[-122.918341,49.278594],[-122.918289,49.278586],[-122.918287,49.27859],[-122.918282,49.278589],[-122.918281,49.278589],[-122.91804,49.278553],[-122.918032,49.278575],[-122.918059,49.278579],[-122.918059,49.27858],[-122.918057,49.27858],[-122.918055,49.278588],[-122.918113,49.278597],[-122.918116,49.278587],[-122.918429,49.278635],[-122.918427,49.278639],[-122.918445,49.278642],[-122.918446,49.278638],[-122.918455,49.278639],[-122.918463,49.278617]]]}},{"type":"Feature","id":"sub-2000-2400-15807","properties":{"id":"sub-2000-2400-15807","name":"Gamers' Lounge","floorId":"2000","roomId":"2400","roomType":"Public Lounge","priority":30},"geometry":{"type":"Polygon","coordinates":[[[-122.917923,49.278424],[-122.917887,49.278527],[-122.91792,49.278532],[-122.91792,49.278533],[-122.917961,49.27854],[-122.917962,49.278537],[-122.917967,49.278538],[-122.917967,49.278539],[-122.918003,49.278545],[-122.918021,49.278494],[-122.918019,49.278494],[-122.918021,49.278491],[-122.918022,49.278491],[-122.91804,49.278442],[-122.917923,49.278424]]]}},{"type":"Feature","id":"sub-2000-2420-15808","properties":{"id":"sub-2000-2420-15808","name":"SUB 2420","floorId":"2000","roomId":"2420","roomType":"Meeting Room","priority":30},"geometry":{"type":"Polygon","coordinates":[[[-122.918001,49.278432],[-122.918019,49.278383],[-122.918017,49.278383],[-122.918018,49.278379],[-122.91802,49.27838],[-122.918028,49.278357],[-122.918026,49.278356],[-122.918026,49.278355],[-122.917952,49.278344],[-122.917925,49.278418],[-122.91793,49.278419],[-122.917929,49.278421],[-122.918001,49.278432]]]}},{"type":"Feature","id":"sub-2000-240-15810","properties":{"id":"sub-2000-240-15810","name":"SUB 240","floorId":"2000","roomId":"240","roomType":"Corridor","priority":5},"geometry":{"type":"Polygon","coordinates":[[[-122.918248,49.278383],[-122.918244,49.278394],[-122.918247,49.278394],[-122.918241,49.278413],[-122.918246,49.278414],[-122.918244,49.278417],[-122.918239,49.278417],[-122.918222,49.278466],[-122.918227,49.278467],[-122.918226,49.27847],[-122.918217,49.278469],[-122.918218,49.278467],[-122.918165,49.278458],[-122.918127,49.278566],[-122.918182,49.278574],[-122.918201,49.278518],[-122.918207,49.278519],[-122.918206,49.278522],[-122.918243,49.278528],[-122.918292,49.278389],[-122.918248,49.278383]]]}},{"type":"Feature","id":"sub-2000-2410-15811","properties":{"id":"sub-2000-2410-15811","name":"Rehearsal Room","floorId":"2000","roomId":"2410","roomType":"Dance Studio","priority":30},"geometry":{"type":"Polygon","coordinates":[[[-122.918119,49.278563],[-122.91812,49.278561],[-122.918124,49.278562],[-122.918142,49.278513],[-122.91814,49.278512],[-122.918141,49.278509],[-122.918143,49.278509],[-122.91816,49.27846],[-122.918156,49.278459],[-122.918157,49.278456],[-122.918162,49.278457],[-122.918168,49.278439],[-122.918126,49.278433],[-122.918128,49.278427],[-122.918053,49.278416],[-122.918007,49.278545],[-122.918009,49.278546],[-122.91804,49.27855],[-122.918041,49.278549],[-122.918049,49.27855],[-122.918048,49.278553],[-122.918119,49.278563]]]}},{"type":"Feature","id":"sub-2000-241-15812","properties":{"id":"sub-2000-241-15812","name":"SUB 241","floorId":"2000","roomId":"241","roomType":"Corridor","priority":5},"geometry":{"type":"Polygon","coordinates":[[[-122.918292,49.278389],[-122.918299,49.27837],[-122.918256,49.278364],[-122.918257,49.278362],[-122.918202,49.278353],[-122.918201,49.278355],[-122.918193,49.278354],[-122.918194,49.278351],[-122.918159,49.278345],[-122.918158,49.278349],[-122.917955,49.278318],[-122.917946,49.278342],[-122.917952,49.278343],[-122.918027,49.278354],[-122.918048,49.278358],[-122.918037,49.278387],[-122.918139,49.278402],[-122.91815,49.278373],[-122.918207,49.278382],[-122.918197,49.278411],[-122.918237,49.278417],[-122.918237,49.278416],[-122.918236,49.278416],[-122.918237,49.278413],[-122.918238,49.278413],[-122.918247,49.278388],[-122.918244,49.278387],[-122.918245,49.278382],[-122.918292,49.278389]]]}},{"type":"Feature","id":"sub-2000-214-15813","properties":{"id":"sub-2000-214-15813","name":"SUB 214","floorId":"2000","roomId":"214","roomType":"Corridor","priority":5},"geometry":{"type":"Polygon","coordinates":[[[-122.918425,49.278905],[-122.91843,49.278891],[-122.918419,49.27889],[-122.918451,49.278799],[-122.918406,49.278792],[-122.918369,49.278897],[-122.918425,49.278905]]]}},{"type":"Feature","id":"sub-2000-2120-15815","properties":{"id":"sub-2000-2120-15815","name":"SUB 2120","floorId":"2000","roomId":"2120","roomType":"Meeting Room","priority":30},"geometry":{"type":"Polygon","coordinates":[[[-122.918265,49.27878],[-122.918273,49.278758],[-122.918274,49.278758],[-122.918291,49.27871],[-122.918227,49.278701],[-122.918226,49.278701],[-122.918209,49.278748],[-122.91821,49.278748],[-122.918209,49.278751],[-122.918208,49.278751],[-122.918201,49.278771],[-122.918265,49.27878]]]}},{"type":"Feature","id":"sub-2000-2110-15816","properties":{"id":"sub-2000-2110-15816","name":"SFSS Women's Lounge","floorId":"2000","roomId":"2110","roomType":"Public Lounge","priority":30},"geometry":{"type":"Polygon","coordinates":[[[-122.918223,49.278701],[-122.918221,49.2787],[-122.918158,49.27869],[-122.918158,49.278691],[-122.918144,49.278689],[-122.918125,49.278742],[-122.918128,49.278742],[-122.918126,49.278746],[-122.918123,49.278745],[-122.918119,49.278758],[-122.918198,49.27877],[-122.918205,49.278751],[-122.918204,49.278751],[-122.918205,49.278747],[-122.918206,49.278747],[-122.918223,49.278701]]]}},{"type":"Feature","id":"sub-2000-2220-15817","properties":{"id":"sub-2000-2220-15817","name":"SFSS Women's Centre","floorId":"2000","roomId":"2220","roomType":"Office","priority":50},"geometry":{"type":"Polygon","coordinates":[[[-122.918092,49.278818],[-122.918113,49.278759],[-122.918091,49.278756],[-122.918116,49.278684],[-122.918114,49.278684],[-122.918115,49.278683],[-122.918086,49.278679],[-122.918057,49.278762],[-122.917932,49.278743],[-122.917923,49.278769],[-122.917927,49.278769],[-122.917919,49.278792],[-122.918092,49.278818]]]}},{"type":"Feature","id":"sub-2000-2232-15822","properties":{"id":"sub-2000-2232-15822","name":"SUB 2232","floorId":"2000","roomId":"2232","roomType":"Office","priority":50},"geometry":{"type":"Polygon","coordinates":[[[-122.918075,49.278705],[-122.918072,49.278704],[-122.918073,49.278701],[-122.918076,49.278701],[-122.918082,49.278683],[-122.918041,49.278676],[-122.918027,49.278714],[-122.918069,49.27872],[-122.918075,49.278705]]]}},{"type":"Feature","id":"sub-2000-2234-15823","properties":{"id":"sub-2000-2234-15823","name":"SUB 2234","floorId":"2000","roomId":"2234","roomType":"Office","priority":50},"geometry":{"type":"Polygon","coordinates":[[[-122.918038,49.278676],[-122.918002,49.278671],[-122.917995,49.278689],[-122.917998,49.27869],[-122.917997,49.278693],[-122.917994,49.278693],[-122.917989,49.278708],[-122.918025,49.278714],[-122.918038,49.278676]]]}},{"type":"Feature","id":"sub-2000-2226-15824","properties":{"id":"sub-2000-2226-15824","name":"SUB 2226","floorId":"2000","roomId":"2226","roomType":"Office","priority":50},"geometry":{"type":"Polygon","coordinates":[[[-122.917972,49.278747],[-122.917985,49.27871],[-122.91795,49.278704],[-122.917941,49.278729],[-122.917937,49.278729],[-122.917933,49.278741],[-122.917972,49.278747]]]}},{"type":"Feature","id":"sub-2000-2236-15825","properties":{"id":"sub-2000-2236-15825","name":"SUB 2236","floorId":"2000","roomId":"2236","roomType":"Office","priority":50},"geometry":{"type":"Polygon","coordinates":[[[-122.917959,49.278677],[-122.91795,49.278702],[-122.917986,49.278708],[-122.917999,49.27867],[-122.91796,49.278664],[-122.917956,49.278677],[-122.917959,49.278677]]]}}]}
